     2.10           G: GLONASS NAV DATA                     RINEX VERSION / TYPE
teqc  2015Jun23                         20210222 02:25:44UTCPGM / RUN BY / DATE
Linux 2.4.21-27.ELsmp|Opteron|gcc -static|Linux x86_64|=+   COMMENT
  2021     2    14   -0.000000000000D+00                    CORR TO SYSTEM TIME
                                                            END OF HEADER
22 21  2 15  0 15  0.0-9.791180491447D-05-9.094947017729D-13 0.000000000000D+00
    1.037103515625D+04-7.873516082764D-01 2.793967723846D-09 0.000000000000D+00
    2.054639746094D+04-1.319183349609D+00 0.000000000000D+00-3.000000000000D+00
   -1.111589160156D+04-3.165955543518D+00 9.313225746155D-10 0.000000000000D+00
 9 21  2 15  0 15  0.0-2.169143408537D-05 1.818989403546D-12 0.000000000000D+00
   -1.352564257812D+04 9.298362731934D-01-0.000000000000D+00 0.000000000000D+00
    9.976878906250D+03-2.455970764160D+00-9.313225746155D-10-2.000000000000D+00
    1.922584521484D+04 1.923716545105D+00-2.793967723846D-09 0.000000000000D+00
 7 21  2 15  0 15  0.0-4.243291914463D-05-0.000000000000D+00 0.000000000000D+00
   -1.474998779297D+04-2.352348327637D+00-0.000000000000D+00 0.000000000000D+00
    1.109274951172D+04 5.194339752197D-01-1.862645149231D-09 5.000000000000D+00
    1.762132617188D+04-2.304788589478D+00-1.862645149231D-09 0.000000000000D+00
10 21  2 15  0 15  0.0-6.638001650572D-05-0.000000000000D+00 0.000000000000D+00
   -1.071023339844D+04 4.000682830811D-01 9.313225746155D-10 0.000000000000D+00
    2.236641406250D+04-7.042150497437D-01-1.862645149231D-09-7.000000000000D+00
    5.791938964844D+03 3.458032608032D+00-9.313225746155D-10 0.000000000000D+00
21 21  2 15  0 15  0.0-1.877509057522D-04-2.728484105319D-12 0.000000000000D+00
   -2.442964355469D+03-1.870543479919D+00 0.000000000000D+00 0.000000000000D+00
    1.260921777344D+04-2.375308990479D+00-0.000000000000D+00 4.000000000000D+00
   -2.202886523438D+04-1.153691291809D+00 1.862645149231D-09 0.000000000000D+00
23 21  2 15  0 15  0.0 3.660870715976D-04 1.818989403546D-12 6.600000000000D+02
    1.804516845703D+04 1.114781379700D+00 3.725290298462D-09 0.000000000000D+00
    1.437573388672D+04 1.017149925232D+00 9.313225746155D-10 3.000000000000D+00
    1.088532763672D+04-3.190063476562D+00-0.000000000000D+00 0.000000000000D+00
 6 21  2 15  0 15  0.0 1.927400007844D-04 0.000000000000D+00 1.440000000000D+03
   -2.464132128906D+04-2.925491333008D-01-2.793967723846D-09 0.000000000000D+00
    6.092103515625D+03 2.022686004639D-01-2.793967723846D-09-4.000000000000D+00
    2.373478515625D+03-3.543892860413D+00-9.313225746155D-10 0.000000000000D+00
23 21  2 15  0 45  0.0 3.660917282104D-04 1.818989403546D-12 1.800000000000D+03
    1.966706005859D+04 6.455841064453D-01 4.656612873077D-09 0.000000000000D+00
    1.552489501953D+04 2.738342285156D-01 0.000000000000D+00 3.000000000000D+00
    4.796646972656D+03-3.531214714050D+00 0.000000000000D+00 0.000000000000D+00
22 21  2 15  0 45  0.0-9.791459888220D-05-9.094947017729D-13 1.800000000000D+03
    8.315218261719D+03-1.500516891479D+00 1.862645149231D-09 0.000000000000D+00
    1.782150048828D+04-1.662075042725D+00-0.000000000000D+00-3.000000000000D+00
   -1.631408886719D+04-2.572447776794D+00 1.862645149231D-09 0.000000000000D+00
 6 21  2 15  0 45  0.0 1.927400007844D-04 0.000000000000D+00 1.800000000000D+03
   -2.438562890625D+04 5.643148422241D-01-3.725290298462D-09 0.000000000000D+00
    6.268619628906D+03-4.472923278809D-02-1.862645149231D-09-4.000000000000D+00
   -4.014889160156D+03-3.508125305176D+00-0.000000000000D+00 0.000000000000D+00
 7 21  2 15  0 45  0.0-4.243291914463D-05-0.000000000000D+00 1.800000000000D+03
   -1.836029638672D+04-1.632694244385D+00-9.313225746155D-10 0.000000000000D+00
    1.218395166016D+04 6.551771163940D-01-1.862645149231D-09 5.000000000000D+00
    1.284549414062D+04-2.967405319214D+00-1.862645149231D-09 0.000000000000D+00
10 21  2 15  0 45  0.0-6.638187915087D-05-0.000000000000D+00 1.800000000000D+03
   -9.905415527344D+03 4.525232315063D-01 0.000000000000D+00 0.000000000000D+00
    2.033016699219D+04-1.549030303955D+00-1.862645149231D-09-7.000000000000D+00
    1.171052294922D+04 3.075266838074D+00-1.862645149231D-09 0.000000000000D+00
21 21  2 15  0 45  0.0-1.877555623651D-04-2.728484105319D-12 1.800000000000D+03
   -6.250062500000D+03-2.329330444336D+00-9.313225746155D-10 0.000000000000D+00
    8.475639648438D+03-2.174138069153D+00-9.313225746155D-10 4.000000000000D+00
   -2.322646191406D+04-1.683845520020D-01 1.862645149231D-09 0.000000000000D+00
12 21  2 15  0 45  0.0 2.050679177046D-04 2.728484105319D-12 1.890000000000D+03
    6.838200683594D+03-5.129690170288D-01 9.313225746155D-10 0.000000000000D+00
    1.393555566406D+04 2.726543426514D+00-0.000000000000D+00-1.000000000000D+00
   -2.021185302734D+04 1.706955909729D+00 1.862645149231D-09 0.000000000000D+00
 8 21  2 15  0 45  0.0-5.738437175751D-05 0.000000000000D+00 3.030000000000D+03
   -2.609596191406D+03-2.902199745178D+00 9.313225746155D-10 0.000000000000D+00
    1.198450292969D+04 9.553260803223D-01-9.313225746155D-10 6.000000000000D+00
    2.241575390625D+04-8.525457382202D-01-1.862645149231D-09 0.000000000000D+00
23 21  2 15  1 15  0.0 3.660963848233D-04 1.818989403546D-12 3.600000000000D+03
    2.023804394531D+04-4.101467132568D-02 3.725290298462D-09 0.000000000000D+00
    1.544368554688D+04-3.334693908691D-01-0.000000000000D+00 3.000000000000D+00
   -1.662829101562D+03-3.599386215210D+00 9.313225746155D-10 0.000000000000D+00
22 21  2 15  1 15  0.0-9.791739284992D-05-9.094947017729D-13 3.600000000000D+03
    4.991305175781D+03-2.176838874817D+00 9.313225746155D-10 0.000000000000D+00
    1.473356689453D+04-1.722157478333D+00-0.000000000000D+00-3.000000000000D+00
   -2.025726123047D+04-1.780384063721D+00 1.862645149231D-09 0.000000000000D+00
 8 21  2 15  1 15  0.0-5.738437175751D-05 0.000000000000D+00 3.600000000000D+03
   -7.453445312500D+03-2.440750122070D+00 0.000000000000D+00 0.000000000000D+00
    1.397872851562D+04 1.228994369507D+00-9.313225746155D-10 6.000000000000D+00
    2.003867822266D+04-1.771734237671D+00-1.862645149231D-09 0.000000000000D+00
 7 21  2 15  1 15  0.0-4.243385046721D-05-0.000000000000D+00 3.600000000000D+03
   -2.056517431641D+04-8.093242645264D-01-2.793967723846D-09 0.000000000000D+00
    1.330399609375D+04 5.467453002930D-01-1.862645149231D-09 5.000000000000D+00
    7.076264648438D+03-3.401283264160D+00-9.313225746155D-10 0.000000000000D+00
10 21  2 15  1 15  0.0-6.638281047344D-05-0.000000000000D+00 3.600000000000D+03
   -9.223652343750D+03 2.689352035522D-01-0.000000000000D+00 0.000000000000D+00
    1.685751708984D+04-2.281692504883D+00-9.313225746155D-10-7.000000000000D+00
    1.671929541016D+04 2.453793525696D+00-1.862645149231D-09 0.000000000000D+00
12 21  2 15  1 15  0.0 2.050725743175D-04 2.728484105319D-12 3.600000000000D+03
    6.326376953125D+03-7.367706298828D-02 9.313225746155D-10 0.000000000000D+00
    1.845642236328D+04 2.251849174500D+00-9.313225746155D-10-1.000000000000D+00
   -1.639570117188D+04 2.505620002747D+00 1.862645149231D-09 0.000000000000D+00
23 21  2 15  1 45  0.0 3.661010414362D-04 1.818989403546D-12 5.400000000000D+03
    1.944153417969D+04-8.565740585327D-01 2.793967723846D-09 0.000000000000D+00
    1.445635156250D+04-7.222166061401D-01-9.313225746155D-10 3.000000000000D+00
   -7.993771972656D+03-3.389332771301D+00 9.313225746155D-10 0.000000000000D+00
22 21  2 15  1 45  0.0-9.792018681765D-05-9.094947017729D-13 5.400000000000D+03
    5.688403320312D+02-2.703432083130D+00-0.000000000000D+00 0.000000000000D+00
    1.177971386719D+04-1.520395278931D+00-0.000000000000D+00-3.000000000000D+00
   -2.264030371094D+04-8.500738143921D-01 1.862645149231D-09 0.000000000000D+00
 8 21  2 15  1 45  0.0-5.738344043493D-05 0.000000000000D+00 5.400000000000D+03
   -1.128144628906D+04-1.788800239563D+00-9.313225746155D-10 0.000000000000D+00
    1.627506201172D+04 1.280879020691D+00-1.862645149231D-09 6.000000000000D+00
    1.611896044922D+04-2.555507659912D+00-1.862645149231D-09 0.000000000000D+00
 7 21  2 15  1 45  0.0-4.243385046721D-05-0.000000000000D+00 5.400000000000D+03
   -2.128074707031D+04 2.737045288086D-03-3.725290298462D-09 0.000000000000D+00
    1.400139648438D+04 1.884479522705D-01-9.313225746155D-10 5.000000000000D+00
    7.591005859375D+02-3.572139739990D+00-0.000000000000D+00 0.000000000000D+00
10 21  2 15  1 45  0.0-6.638467311859D-05-0.000000000000D+00 5.400000000000D+03
   -9.047218750000D+03-9.680366516113D-02-0.000000000000D+00 0.000000000000D+00
    1.224401611328D+04-2.802206039429D+00-9.313225746155D-10-7.000000000000D+00
    2.042990185547D+04 1.642355918884D+00-2.793967723846D-09 0.000000000000D+00
12 21  2 15  1 45  0.0 2.050781622529D-04 2.728484105319D-12 5.400000000000D+03
    6.481408203125D+03 2.140045166016D-01 9.313225746155D-10 0.000000000000D+00
    2.190171582031D+04 1.544210433960D+00-9.313225746155D-10-1.000000000000D+00
   -1.130847265625D+04 3.110043525696D+00 9.313225746155D-10 0.000000000000D+00
 1 21  2 15  1 45  0.0 7.500313222408D-05 0.000000000000D+00 6.600000000000D+03
    2.907335449219D+03-2.573457717896D+00 9.313225746155D-10 0.000000000000D+00
    1.122147021484D+04 1.746533393860D+00-9.313225746155D-10 1.000000000000D+00
    2.272392431641D+04-5.320520401001D-01-1.862645149231D-09 0.000000000000D+00
 8 21  2 15  2 15  0.0-5.738344043493D-05-0.000000000000D+00 7.200000000000D+03
   -1.384022070312D+04-1.049023628235D+00-2.793967723846D-09 0.000000000000D+00
    1.843172558594D+04 1.070657730103D+00-9.313225746155D-10 6.000000000000D+00
    1.095675097656D+04-3.143273353577D+00-1.862645149231D-09 0.000000000000D+00
 7 21  2 15  2 15  0.0-4.243478178978D-05-0.000000000000D+00 7.200000000000D+03
   -2.062872607422D+04 6.932287216187D-01-4.656612873077D-09 0.000000000000D+00
    1.385531835938D+04-3.803358078003D-01-9.313225746155D-10 5.000000000000D+00
   -5.616836425781D+03-3.466058731079D+00-0.000000000000D+00 0.000000000000D+00
